OCO 2                   
1 40059U 14035A   26073.52864682  .00000730  00000+0  17217-3 0  9990
2 40059  98.1999  16.3031 0001323  94.3495 265.7854 14.57100826622261
BRITE-PL2 (HEWELIUSZ)   
1 40119U 14049B   26073.29381576  .00002373  00000+0  22652-3 0  9996
2 40119  97.8979 184.6506 0015133  67.0924 293.1891 14.94207926627278
MMS 1                   
1 40482U 15011A   26073.58335648 -.00001942  00000+0  00000+0 0  9991
2 40482  70.7902 350.1128 8407398 165.3817   9.1349  0.28230059  1360
MMS 2                   
1 40483U 15011B   26073.58335648 -.00001942  00000+0  00000+0 0  9992
2 40483  70.7904 350.1150 8408137 165.3878   9.1187  0.28229855  1369
MMS 3                   
1 40484U 15011C   26073.58335648 -.00001942  00000+0  00000+0 0  9993
2 40484  70.7928 350.1197 8407412 165.3820   9.1262  0.28229926  1362
MMS 4                   
1 40485U 15011D   26073.58335648 -.00001942  00000+0  00000+0 0  9994
2 40485  70.7908 350.1148 8406927 165.3894   9.1120  0.28229692  1361
ASTROSAT                
1 40930U 15052A   26073.49927626  .00002214  00000+0  18852-3 0  9997
2 40930   5.9965 116.8239 0007518 124.3809 235.7030 14.82314483565756
DAMPE                   
1 41173U 15078A   26073.57311544  .00001813  00000+0  63958-4 0  9992
2 41173  97.4587  78.5844 0013649  55.9821 304.2714 15.30518910570070
PISAT                   
1 41784U 16059B   26073.52586534  .00001370  00000+0  24122-3 0  9995
2 41784  97.8192  78.0580 0029913 145.6167 214.6983 14.68788005505846
HXMT (HUIYAN)           
1 42758U 17034A   26073.45092619  .00007289  00000+0  36307-3 0  9992
2 42758  43.0161 350.2022 0033277 264.9047  94.8002 15.17539373483261
FLYING LAPTOP           
1 42831U 17042G   26073.64602280  .00002846  00000+0  22923-3 0  9998
2 42831  97.4279 233.0997 0019632  79.8881 280.4557 15.00553935472272
ZHANGHENG 1-01 (CSES-1) 
1 43194U 18015C   26073.26013579  .00012243  00000+0  55112-3 0  9995
2 43194  97.6758 237.0795 0015099 227.8892 132.1060 15.21136298450213
SALSAT                  
1 46495U 20068K   26073.51831201  .00012617  00000+0  46004-3 0  9996
2 46495  97.8858  70.9296 0008068 275.9056  84.1263 15.28293668300898
IXPE                    
1 49954U 21121A   26073.66668981  .00014511  00000+0  82652-3 0  9993
2 49954   0.2303 312.2369 0007266  85.3852 218.3044 15.09286628  5036
